OBJECT_NAME,OBJECT_ID,EPOCH,MEAN_MOTION,ECCENTRICITY,INCLINATION,RA_OF_ASC_NODE,ARG_OF_PERICENTER,MEAN_ANOMALY,EPHEMERIS_TYPE,CLASSIFICATION_TYPE,NORAD_CAT_ID,ELEMENT_SET_NO,REV_AT_EPOCH,BSTAR,MEAN_MOTION_DOT,MEAN_MOTION_DDOT
HAWK-6B,2023-011A,2026-06-14T22:53:01.498848,15.22916591,.0002755,40.4995,5.1004,346.5783,13.4953,0,U,55324,999,18750,.2118E-3,.4881E-4,0
HAWK-6C,2023-011C,2026-06-14T22:52:03.838080,15.22913356,.0003597,40.4989,1.9422,337.2013,22.8636,0,U,55326,999,18751,.18302E-3,.419E-4,0
HAWK-6A,2023-011D,2026-06-14T22:52:08.622048,15.22913773,.0003329,40.4995,3.5673,334.9112,25.1535,0,U,55327,999,18751,.19954E-3,.4586E-4,0
HAWK-7A,2023-054P,2026-06-15T03:28:41.039616,15.27341891,.0004444,97.2705,53.5343,61.8117,298.3571,0,U,56191,999,17671,.17761E-3,.4684E-4,0
HAWK-7B,2023-054R,2026-06-15T03:28:33.533184,15.27339835,.0003813,97.2735,51.7977,72.4699,287.6956,0,U,56193,999,17671,.18241E-3,.4812E-4,0
HAWK-7C,2023-054Y,2026-06-15T03:28:24.129408,15.27341796,.0003803,97.2710,52.5671,64.3687,295.7945,0,U,56200,999,17671,.17873E-3,.4714E-4,0
