HAWK-6B                 
1 55324U 23011A   26165.95348957  .00004881  00000+0  21180-3 0  9991
2 55324  40.4995   5.1004 0002755 346.5783  13.4953 15.22916591187504
HAWK-6C                 
1 55326U 23011C   26165.95282220  .00004190  00000+0  18302-3 0  9998
2 55326  40.4989   1.9422 0003597 337.2013  22.8636 15.22913356187514
HAWK-6A                 
1 55327U 23011D   26165.95287757  .00004586  00000+0  19954-3 0  9992
2 55327  40.4995   3.5673 0003329 334.9112  25.1535 15.22913773187512
HAWK-7A                 
1 56191U 23054P   26166.14491944  .00004684  00000+0  17761-3 0  9999
2 56191  97.2705  53.5343 0004444  61.8117 298.3571 15.27341891176715
HAWK-7B                 
1 56193U 23054R   26166.14483256  .00004812  00000+0  18241-3 0  9995
2 56193  97.2735  51.7977 0003813  72.4699 287.6956 15.27339835176718
HAWK-7C                 
1 56200U 23054Y   26166.14472372  .00004714  00000+0  17873-3 0  9992
2 56200  97.2710  52.5671 0003803  64.3687 295.7945 15.27341796176713
